{
  "type": "FeatureCollection",
  "features": [
    {
      "type": "Feature",
      "properties": {
        "norad_id": 66568,
        "name": "STARLINK-35803",
        "group": "last-30-days",
        "lat": 32.27797535708568,
        "lon": 140.91600610628424,
        "alt_km": 409.7458806097893,
        "timestamp": "2025-12-16T15:45:49.731826+00:00",
        "meta_object_name": "STARLINK-35803",
        "meta_object_id": "2025-268M",
        "meta_epoch": "2025-12-15T16:21:14.632704",
        "meta_mean_motion": 15.50582544,
        "meta_eccentricity": 9.557e-05,
        "meta_inclination": 42.9957,
        "meta_ra_of_asc_node": 103.9413,
        "meta_arg_of_pericenter": 297.4388,
        "meta_mean_anomaly": 62.6375,
        "meta_ephemeris_type": 0,
        "meta_classification_type": "U",
        "meta_norad_cat_id": 66568,
        "meta_element_set_no": 999,
        "meta_rev_at_epoch": 508,
        "meta_bstar": 0.00097560652,
        "meta_mean_motion_dot": 0.0005732,
        "meta_mean_motion_ddot": 0,
        "tle_line1": "1 66568U 25268M   25349.68141936  .00057320  00000+0  97561-3 0  9992",
        "tle_line2": "2 66568  42.9957 103.9413 0000955 297.4388  62.6375 15.50582544  5081"
      },
      "geometry": {
        "type": "Point",
        "coordinates": [
          140.91600610628424,
          32.27797535708568
        ]
      }
    },
    {
      "type": "Feature",
      "properties": {
        "norad_id": 66569,
        "name": "STARLINK-35835",
        "group": "last-30-days",
        "lat": 33.25909357412689,
        "lon": 142.96508786883547,
        "alt_km": 409.9509827997608,
        "timestamp": "2025-12-16T15:45:49.731836+00:00",
        "meta_object_name": "STARLINK-35835",
        "meta_object_id": "2025-268N",
        "meta_epoch": "2025-12-15T17:53:30.134688",
        "meta_mean_motion": 15.50581218,
        "meta_eccentricity": 0.00013774,
        "meta_inclination": 43.0003,
        "meta_ra_of_asc_node": 103.5637,
        "meta_arg_of_pericenter": 270.128,
        "meta_mean_anomaly": 89.9422,
        "meta_ephemeris_type": 0,
        "meta_classification_type": "U",
        "meta_norad_cat_id": 66569,
        "meta_element_set_no": 999,
        "meta_rev_at_epoch": 509,
        "meta_bstar": 0.0014471406,
        "meta_mean_motion_dot": 0.00085494,
        "meta_mean_motion_ddot": 0,
        "tle_line1": "1 66569U 25268N   25349.74548767  .00085494  00000+0  14471-2 0  9994",
        "tle_line2": "2 66569  43.0003 103.5637 0001377 270.1280  89.9422 15.50581218  5091"
      },
      "geometry": {
        "type": "Point",
        "coordinates": [
          142.96508786883547,
          33.25909357412689
        ]
      }
    },
    {
      "type": "Feature",
      "properties": {
        "norad_id": 66570,
        "name": "STARLINK-35834",
        "group": "last-30-days",
        "lat": 34.17957257406364,
        "lon": 145.00350818604346,
        "alt_km": 409.6216376735774,
        "timestamp": "2025-12-16T15:45:49.731846+00:00",
        "meta_object_name": "STARLINK-35834",
        "meta_object_id": "2025-268P",
        "meta_epoch": "2025-12-15T17:53:00.601440",
        "meta_mean_motion": 15.50576778,
        "meta_eccentricity": 0.00015175,
        "meta_inclination": 43.0015,
        "meta_ra_of_asc_node": 103.56,
        "meta_arg_of_pericenter": 287.477,
        "meta_mean_anomaly": 72.5924,
        "meta_ephemeris_type": 0,
        "meta_classification_type": "U",
        "meta_norad_cat_id": 66570,
        "meta_element_set_no": 999,
        "meta_rev_at_epoch": 509,
        "meta_bstar": 0.00163027,
        "meta_mean_motion_dot": 0.00096477,
        "meta_mean_motion_ddot": 0,
        "tle_line1": "1 66570U 25268P   25349.74514585  .00096477  00000+0  16303-2 0  9996",
        "tle_line2": "2 66570  43.0015 103.5600 0001517 287.4770  72.5924 15.50576778  5097"
      },
      "geometry": {
        "type": "Point",
        "coordinates": [
          145.00350818604346,
          34.17957257406364
        ]
      }
    },
    {
      "type": "Feature",
      "properties": {
        "norad_id": 66571,
        "name": "STARLINK-35836",
        "group": "last-30-days",
        "lat": 35.03677141864745,
        "lon": 147.03405371223013,
        "alt_km": 409.2103264551033,
        "timestamp": "2025-12-16T15:45:49.731857+00:00",
        "meta_object_name": "STARLINK-35836",
        "meta_object_id": "2025-268Q",
        "meta_epoch": "2025-12-15T16:19:45.764256",
        "meta_mean_motion": 15.50585283,
        "meta_eccentricity": 0.00014873,
        "meta_inclination": 42.9954,
        "meta_ra_of_asc_node": 103.9347,
        "meta_arg_of_pericenter": 312.1791,
        "meta_mean_anomaly": 47.8943,
        "meta_ephemeris_type": 0,
        "meta_classification_type": "U",
        "meta_norad_cat_id": 66571,
        "meta_element_set_no": 999,
        "meta_rev_at_epoch": 508,
        "meta_bstar": 0.0011259195,
        "meta_mean_motion_dot": 0.00066287,
        "meta_mean_motion_ddot": 0,
        "tle_line1": "1 66571U 25268Q   25349.68039079  .00066287  00000+0  11259-2 0  9991",
        "tle_line2": "2 66571  42.9954 103.9347 0001487 312.1791  47.8943 15.50585283  5081"
      },
      "geometry": {
        "type": "Point",
        "coordinates": [
          147.03405371223013,
          35.03677141864745
        ]
      }
    },
    {
      "type": "Feature",
      "properties": {
        "norad_id": 66572,
        "name": "STARLINK-35870",
        "group": "last-30-days",
        "lat": 35.87347738344608,
        "lon": 149.12095844155323,
        "alt_km": 409.80736184439957,
        "timestamp": "2025-12-16T15:45:49.731867+00:00",
        "meta_object_name": "STARLINK-35870",
        "meta_object_id": "2025-268R",
        "meta_epoch": "2025-12-15T17:52:01.245504",
        "meta_mean_motion": 15.50594165,
        "meta_eccentricity": 0.00014954,
        "meta_inclination": 42.9995,
        "meta_ra_of_asc_node": 103.5566,
        "meta_arg_of_pericenter": 266.7473,
        "meta_mean_anomaly": 93.3216,
        "meta_ephemeris_type": 0,
        "meta_classification_type": "U",
        "meta_norad_cat_id": 66572,
        "meta_element_set_no": 999,
        "meta_rev_at_epoch": 509,
        "meta_bstar": 0.00095913059,
        "meta_mean_motion_dot": 0.00056363,
        "meta_mean_motion_ddot": 0,
        "tle_line1": "1 66572U 25268R   25349.74445886  .00056363  00000+0  95913-3 0  9990",
        "tle_line2": "2 66572  42.9995 103.5566 0001495 266.7473  93.3216 15.50594165  5095"
      },
      "geometry": {
        "type": "Point",
        "coordinates": [
          149.12095844155323,
          35.87347738344608
        ]
      }
    },
    {
      "type": "Feature",
      "properties": {
        "norad_id": 66573,
        "name": "STARLINK-35650",
        "group": "last-30-days",
        "lat": 36.699912424839255,
        "lon": 151.3559337888989,
        "alt_km": 408.401116156846,
        "timestamp": "2025-12-16T15:45:49.731880+00:00",
        "meta_object_name": "STARLINK-35650",
        "meta_object_id": "2025-268S",
        "meta_epoch": "2025-12-15T16:18:46.744416",
        "meta_mean_motion": 15.50589212,
        "meta_eccentricity": 0.00015462,
        "meta_inclination": 42.9911,
        "meta_ra_of_asc_node": 103.931,
        "meta_arg_of_pericenter": 343.0592,
        "meta_mean_anomaly": 17.0216,
        "meta_ephemeris_type": 0,
        "meta_classification_type": "U",
        "meta_norad_cat_id": 66573,
        "meta_element_set_no": 999,
        "meta_rev_at_epoch": 508,
        "meta_bstar": 0.001308297,
        "meta_mean_motion_dot": 0.00077199,
        "meta_mean_motion_ddot": 0,
        "tle_line1": "1 66573U 25268S   25349.67970769  .00077199  00000+0  13083-2 0  9993",
        "tle_line2": "2 66573  42.9911 103.9310 0001546 343.0592  17.0216 15.50589212  5082"
      },
      "geometry": {
        "type": "Point",
        "coordinates": [
          151.3559337888989,
          36.699912424839255
        ]
      }
    },
    {
      "type": "Feature",
      "properties": {
        "norad_id": 66574,
        "name": "STARLINK-35812",
        "group": "last-30-days",
        "lat": 38.44612659316308,
        "lon": 156.62192551578877,
        "alt_km": 407.5435349648733,
        "timestamp": "2025-12-16T15:45:49.731890+00:00",
        "meta_object_name": "STARLINK-35812",
        "meta_object_id": "2025-268T",
        "meta_epoch": "2025-12-14T01:39:20.923488",
        "meta_mean_motion": 15.50571155,
        "meta_eccentricity": 0.00014446,
        "meta_inclination": 42.9999,
        "meta_ra_of_asc_node": 113.3431,
        "meta_arg_of_pericenter": 286.1846,
        "meta_mean_anomaly": 73.8855,
        "meta_ephemeris_type": 0,
        "meta_classification_type": "U",
        "meta_norad_cat_id": 66574,
        "meta_element_set_no": 999,
        "meta_rev_at_epoch": 483,
        "meta_bstar": 0.002097662,
        "meta_mean_motion_dot": 0.00124662,
        "meta_mean_motion_ddot": 0,
        "tle_line1": "1 66574U 25268T   25348.06899217  .00124662  00000+0  20977-2 0  9992",
        "tle_line2": "2 66574  42.9999 113.3431 0001444 286.1846  73.8855 15.50571155  4832"
      },
      "geometry": {
        "type": "Point",
        "coordinates": [
          156.62192551578877,
          38.44612659316308
        ]
      }
    }
  ]
}